{"type": "FeatureCollection", "features": [{"type": "Feature", "properties": {"norad_id": 28054, "name": "DMSP 5D-3 F16 (USA 172)", "group": "weather", "lat": -77.77116780151623, "lon": 133.60802913722318, "alt_km": 849.9588414426871, "timestamp": "2025-12-09T04:51:47.151188+00:00", "meta": {"OBJECT_NAME": "DMSP 5D-3 F16 (USA 172)", "OBJECT_ID": "2003-048A", "EPOCH": "2025-12-08T19:57:45.086976", "MEAN_MOTION": 14.1442234, "ECCENTRICITY": 0.0006643, "INCLINATION": 99.0048, "RA_OF_ASC_NODE": 0.258, "ARG_OF_PERICENTER": 332.9973, "MEAN_ANOMALY": 201.427, "EPHEMERIS_TYPE": 0, "CLASSIFICATION_TYPE": "U", "NORAD_CAT_ID": 28054, "ELEMENT_SET_NO": 999, "REV_AT_EPOCH": 14257, "BSTAR": 0.00016481, "MEAN_MOTION_DOT": 2.7e-06, "MEAN_MOTION_DDOT": 0}, "tle": {"line1": "1 28054U 03048A   25342.83177184  .00000270  00000+0  16481-3 0  9990", "line2": "2 28054  99.0048   0.2580 0006643 332.9973 201.4270 14.14422340142571"}}, "geometry": {"type": "Point", "coordinates": [133.60802913722318, -77.77116780151623]}}, {"type": "Feature", "properties": {"norad_id": 28912, "name": "METEOSAT-9 (MSG-2)", "group": "weather", "lat": 5.634551742577497, "lon": -162.9105618250231, "alt_km": 35773.96127838467, "timestamp": "2025-12-09T04:51:47.151235+00:00", "meta": {"OBJECT_NAME": "METEOSAT-9 (MSG-2)", "OBJECT_ID": "2005-049B", "EPOCH": "2025-12-08T18:57:30.076416", "MEAN_MOTION": 1.00274224, "ECCENTRICITY": 0.0003847, "INCLINATION": 8.9308, "RA_OF_ASC_NODE": 56.0129, "ARG_OF_PERICENTER": 189.6546, "MEAN_ANOMALY": 162.1245, "EPHEMERIS_TYPE": 0, "CLASSIFICATION_TYPE": "U", "NORAD_CAT_ID": 28912, "ELEMENT_SET_NO": 999, "REV_AT_EPOCH": 508, "BSTAR": 0, "MEAN_MOTION_DOT": 1.23e-06, "MEAN_MOTION_DDOT": 0}, "tle": {"line1": "1 28912U 05049B   25342.78993144  .00000123  00000+0  00000+0 0  9995", "line2": "2 28912   8.9308  56.0129 0003847 189.6546 162.1245  1.00274224  5082"}}, "geometry": {"type": "Point", "coordinates": [-162.9105618250231, 5.634551742577497]}}, {"type": "Feature", "properties": {"norad_id": 29522, "name": "DMSP 5D-3 F17 (USA 191)", "group": "weather", "lat": -15.770859257821588, "lon": 166.17551960043835, "alt_km": 842.177767739392, "timestamp": "2025-12-09T04:51:47.151253+00:00", "meta": {"OBJECT_NAME": "DMSP 5D-3 F17 (USA 191)", "OBJECT_ID": "2006-050A", "EPOCH": "2025-12-08T19:27:13.725792", "MEAN_MOTION": 14.14917266, "ECCENTRICITY": 0.0009272, "INCLINATION": 98.7393, "RA_OF_ASC_NODE": 348.2815, "ARG_OF_PERICENTER": 236.9924, "MEAN_ANOMALY": 123.0359, "EPHEMERIS_TYPE": 0, "CLASSIFICATION_TYPE": "U", "NORAD_CAT_ID": 29522, "ELEMENT_SET_NO": 999, "REV_AT_EPOCH": 98549, "BSTAR": 0.00019364, "MEAN_MOTION_DOT": 3.31e-06, "MEAN_MOTION_DDOT": 0}, "tle": {"line1": "1 29522U 06050A   25342.81057553  .00000331  00000+0  19364-3 0  9993", "line2": "2 29522  98.7393 348.2815 0009272 236.9924 123.0359 14.14917266985496"}}, "geometry": {"type": "Point", "coordinates": [166.17551960043835, -15.770859257821588]}}, {"type": "Feature", "properties": {"norad_id": 32958, "name": "FENGYUN 3A", "group": "weather", "lat": -31.128167962340367, "lon": 97.51730186957882, "alt_km": 834.9758747053147, "timestamp": "2025-12-09T04:51:47.151266+00:00", "meta": {"OBJECT_NAME": "FENGYUN 3A", "OBJECT_ID": "2008-026A", "EPOCH": "2025-12-08T19:24:39.976128", "MEAN_MOTION": 14.19512827, "ECCENTRICITY": 0.0008079, "INCLINATION": 98.6693, "RA_OF_ASC_NODE": 282.4185, "ARG_OF_PERICENTER": 322.7735, "MEAN_ANOMALY": 37.2881, "EPHEMERIS_TYPE": 0, "CLASSIFICATION_TYPE": "U", "NORAD_CAT_ID": 32958, "ELEMENT_SET_NO": 999, "REV_AT_EPOCH": 90839, "BSTAR": 0.00014393, "MEAN_MOTION_DOT": 2.6e-06, "MEAN_MOTION_DDOT": 0}, "tle": {"line1": "1 32958U 08026A   25342.80879602  .00000260  00000+0  14393-3 0  9999", "line2": "2 32958  98.6693 282.4185 0008079 322.7735  37.2881 14.19512827908391"}}, "geometry": {"type": "Point", "coordinates": [97.51730186957882, -31.128167962340367]}}, {"type": "Feature", "properties": {"norad_id": 35491, "name": "GOES 14", "group": "weather", "lat": -0.7870676936753337, "lon": 42.85952896989811, "alt_km": 35802.29542740567, "timestamp": "2025-12-09T04:51:47.151280+00:00", "meta": {"OBJECT_NAME": "GOES 14", "OBJECT_ID": "2009-033A", "EPOCH": "2025-12-08T16:30:50.524128", "MEAN_MOTION": 1.00273094, "ECCENTRICITY": 0.0004078, "INCLINATION": 1.1889, "RA_OF_ASC_NODE": 85.4511, "ARG_OF_PERICENTER": 154.4417, "MEAN_ANOMALY": 337.2035, "EPHEMERIS_TYPE": 0, "CLASSIFICATION_TYPE": "U", "NORAD_CAT_ID": 35491, "ELEMENT_SET_NO": 999, "REV_AT_EPOCH": 468, "BSTAR": 0, "MEAN_MOTION_DOT": -6.6e-07, "MEAN_MOTION_DDOT": 0}, "tle": {"line1": "1 35491U 09033A   25342.68808477 -.00000066  00000+0  00000+0 0  9992", "line2": "2 35491   1.1889  85.4511 0004078 154.4417 337.2035  1.00273094  4687"}}, "geometry": {"type": "Point", "coordinates": [42.85952896989811, -0.7870676936753337]}}, {"type": "Feature", "properties": {"norad_id": 35951, "name": "DMSP 5D-3 F18 (USA 210)", "group": "weather", "lat": 63.679776374798216, "lon": -58.80918598500737, "alt_km": 828.1739254643608, "timestamp": "2025-12-09T04:51:47.151292+00:00", "meta": {"OBJECT_NAME": "DMSP 5D-3 F18 (USA 210)", "OBJECT_ID": "2009-057A", "EPOCH": "2025-12-08T20:04:12.844128", "MEAN_MOTION": 14.14765938, "ECCENTRICITY": 0.0012105, "INCLINATION": 98.883, "RA_OF_ASC_NODE": 319.2567, "ARG_OF_PERICENTER": 72.917, "MEAN_ANOMALY": 287.3328, "EPHEMERIS_TYPE": 0, "CLASSIFICATION_TYPE": "U", "NORAD_CAT_ID": 35951, "ELEMENT_SET_NO": 999, "REV_AT_EPOCH": 83267, "BSTAR": 0.00027901, "MEAN_MOTION_DOT": 4.94e-06, "MEAN_MOTION_DDOT": 0}, "tle": {"line1": "1 35951U 09057A   25342.83625977  .00000494  00000+0  27901-3 0  9995", "line2": "2 35951  98.8830 319.2567 0012105  72.9170 287.3328 14.14765938832676"}}, "geometry": {"type": "Point", "coordinates": [-58.80918598500737, 63.679776374798216]}}, {"type": "Feature", "properties": {"norad_id": 36411, "name": "EWS-G2 (GOES 15)", "group": "weather", "lat": 0.6309888988437721, "lon": -147.46823896962212, "alt_km": 35769.48909305077, "timestamp": "2025-12-09T04:51:47.151305+00:00", "meta": {"OBJECT_NAME": "EWS-G2 (GOES 15)", "OBJECT_ID": "2010-008A", "EPOCH": "2025-12-08T18:22:38.831808", "MEAN_MOTION": 1.00268753, "ECCENTRICITY": 0.0005956, "INCLINATION": 0.804, "RA_OF_ASC_NODE": 86.0569, "ARG_OF_PERICENTER": 173.081, "MEAN_ANOMALY": 155.7327, "EPHEMERIS_TYPE": 0, "CLASSIFICATION_TYPE": "U", "NORAD_CAT_ID": 36411, "ELEMENT_SET_NO": 999, "REV_AT_EPOCH": 5772, "BSTAR": 0, "MEAN_MOTION_DOT": 4e-07, "MEAN_MOTION_DDOT": 0}, "tle": {"line1": "1 36411U 10008A   25342.76572722  .00000040  00000+0  00000+0 0  9990", "line2": "2 36411   0.8040  86.0569 0005956 173.0810 155.7327  1.00268753 57721"}}, "geometry": {"type": "Point", "coordinates": [-147.46823896962212, 0.6309888988437721]}}, {"type": "Feature", "properties": {"norad_id": 36744, "name": "COMS 1", "group": "weather", "lat": -1.5916945445127177, "lon": -80.7332817549727, "alt_km": 35781.83279214253, "timestamp": "2025-12-09T04:51:47.151318+00:00", "meta": {"OBJECT_NAME": "COMS 1", "OBJECT_ID": "2010-032A", "EPOCH": "2025-12-08T17:38:17.054304", "MEAN_MOTION": 1.00270994, "ECCENTRICITY": 0.0001124, "INCLINATION": 4.3314, "RA_OF_ASC_NODE": 78.0431, "ARG_OF_PERICENTER": 199.5268, "MEAN_ANOMALY": 192.9144, "EPHEMERIS_TYPE": 0, "CLASSIFICATION_TYPE": "U", "NORAD_CAT_ID": 36744, "ELEMENT_SET_NO": 999, "REV_AT_EPOCH": 4918, "BSTAR": 0, "MEAN_MOTION_DOT": -3.43e-06, "MEAN_MOTION_DDOT": 0}, "tle": {"line1": "1 36744U 10032A   25342.73491961 -.00000343  00000+0  00000+0 0  9995", "line2": "2 36744   4.3314  78.0431 0001124 199.5268 192.9144  1.00270994 49186"}}, "geometry": {"type": "Point", "coordinates": [-80.7332817549727, -1.5916945445127177]}}, {"type": "Feature", "properties": {"norad_id": 37214, "name": "FENGYUN 3B", "group": "weather", "lat": 29.03219694816261, "lon": 18.113661151275085, "alt_km": 826.6219616808276, "timestamp": "2025-12-09T04:51:47.151330+00:00", "meta": {"OBJECT_NAME": "FENGYUN 3B", "OBJECT_ID": "2010-059A", "EPOCH": "2025-12-08T21:03:11.255904", "MEAN_MOTION": 14.14786459, "ECCENTRICITY": 0.0022288, "INCLINATION": 98.9907, "RA_OF_ASC_NODE": 22.8273, "ARG_OF_PERICENTER": 8.8055, "MEAN_ANOMALY": 164.1321, "EPHEMERIS_TYPE": 0, "CLASSIFICATION_TYPE": "U", "NORAD_CAT_ID": 37214, "ELEMENT_SET_NO": 999, "REV_AT_EPOCH": 78051, "BSTAR": -7.9956e-05, "MEAN_MOTION_DOT": -2e-06, "MEAN_MOTION_DDOT": 0}, "tle": {"line1": "1 37214U 10059A   25342.87721361 -.00000200  00000+0 -79956-4 0  9996", "line2": "2 37214  98.9907  22.8273 0022288   8.8055 164.1321 14.14786459780511"}}, "geometry": {"type": "Point", "coordinates": [18.113661151275085, 29.03219694816261]}}, {"type": "Feature", "properties": {"norad_id": 37849, "name": "SUOMI NPP", "group": "weather", "lat": 9.537703628145263, "lon": 102.0634973772099, "alt_km": 827.498292869378, "timestamp": "2025-12-09T04:51:47.151341+00:00", "meta": {"OBJECT_NAME": "SUOMI NPP", "OBJECT_ID": "2011-061A", "EPOCH": "2025-12-08T19:36:19.855872", "MEAN_MOTION": 14.19512615, "ECCENTRICITY": 0.0002112, "INCLINATION": 98.7768, "RA_OF_ASC_NODE": 280.1939, "ARG_OF_PERICENTER": 127.1152, "MEAN_ANOMALY": 233.0217, "EPHEMERIS_TYPE": 0, "CLASSIFICATION_TYPE": "U", "NORAD_CAT_ID": 37849, "ELEMENT_SET_NO": 999, "REV_AT_EPOCH": 73143, "BSTAR": 0.00012478, "MEAN_MOTION_DOT": 2.19e-06, "MEAN_MOTION_DDOT": 0}, "tle": {"line1": "1 37849U 11061A   25342.81689648  .00000219  00000+0  12478-3 0  9992", "line2": "2 37849  98.7768 280.1939 0002112 127.1152 233.0217 14.19512615731436"}}, "geometry": {"type": "Point", "coordinates": [102.0634973772099, 9.537703628145263]}}]}